{"type": "FeatureCollection", "features": [ {"type": "Feature", "properties": {"norad_id": 29750, "name": "FENGYUN 1C DEB", "group": "fengyun-1c-debris", "lat": 80.82166957865446, "lon": -82.79741453349722, "alt_km": 878.4807528751298, "timestamp": "2025-12-21T20:41:08.232721+00:00", "meta": {"OBJECT_NAME": "FENGYUN 1C DEB", "OBJECT_ID": "1999-025AQ", "EPOCH": "2025-12-21T14:01:28.450848", "MEAN_MOTION": 14.09651376, "ECCENTRICITY": 0.00350572, "INCLINATION": 98.7536, "RA_OF_ASC_NODE": 24.4588, "ARG_OF_PERICENTER": 275.7029, "MEAN_ANOMALY": 209.351, "EPHEMERIS_TYPE": 0, "CLASSIFICATION_TYPE": "U", "NORAD_CAT_ID": 29750, "ELEMENT_SET_NO": 999, "REV_AT_EPOCH": 97198, "BSTAR": 0.0001770414, "MEAN_MOTION_DOT": 2.69e-06, "MEAN_MOTION_DDOT": 0}, "tle": {"line1": "1 29750U 99025AQ  25355.58435707  .00000269  00000+0  17704-3 0  9995", "line2": "2 29750  98.7536  24.4588 0035057 275.7029 209.3510 14.09651376971982"}}, "geometry": {"type": "Point", "coordinates": [-82.79741453349722, 80.82166957865446]}}, {"type": "Feature", "properties": {"norad_id": 29751, "name": "FENGYUN 1C DEB", "group": "fengyun-1c-debris", "lat": -32.40277227742671, "lon": 28.943146481707355, "alt_km": 872.4415156354526, "timestamp": "2025-12-21T20:41:08.232731+00:00", "meta": {"OBJECT_NAME": "FENGYUN 1C DEB", "OBJECT_ID": "1999-025AR", "EPOCH": "2025-12-21T00:44:27.708864", "MEAN_MOTION": 14.2363533, "ECCENTRICITY": 0.00901243, "INCLINATION": 98.5406, "RA_OF_ASC_NODE": 22.6633, "ARG_OF_PERICENTER": 115.3149, "MEAN_ANOMALY": 275.9101, "EPHEMERIS_TYPE": 0, "CLASSIFICATION_TYPE": "U", "NORAD_CAT_ID": 29751, "ELEMENT_SET_NO": 999, "REV_AT_EPOCH": 98191, "BSTAR": 0.00012210017, "MEAN_MOTION_DOT": 2.49e-06, "MEAN_MOTION_DDOT": 0}, "tle": {"line1": "1 29751U 99025AR  25355.03087626  .00000249  00000+0  12210-3 0  9994", "line2": "2 29751  98.5406  22.6633 0090124 115.3149 275.9101 14.23635330981913"}}, "geometry": {"type": "Point", "coordinates": [28.943146481707355, -32.40277227742671]}}, {"type": "Feature", "properties": {"norad_id": 29754, "name": "FENGYUN 1C DEB", "group": "fengyun-1c-debris", "lat": -43.32835395056662, "lon": 107.11006063251945, "alt_km": 840.3690793871283, "timestamp": "2025-12-21T20:41:08.232741+00:00", "meta": {"OBJECT_NAME": "FENGYUN 1C DEB", "OBJECT_ID": "1999-025AU", "EPOCH": "2025-12-21T12:43:48.154944", "MEAN_MOTION": 14.19180784, "ECCENTRICITY": 0.00364294, "INCLINATION": 98.8846, "RA_OF_ASC_NODE": 98.2929, "ARG_OF_PERICENTER": 214.4384, "MEAN_ANOMALY": 208.643, "EPHEMERIS_TYPE": 0, "CLASSIFICATION_TYPE": "U", "NORAD_CAT_ID": 29754, "ELEMENT_SET_NO": 999, "REV_AT_EPOCH": 97479, "BSTAR": 0.00071232382, "MEAN_MOTION_DOT": 1.456e-05, "MEAN_MOTION_DDOT": 0}, "tle": {"line1": "1 29754U 99025AU  25355.53041846  .00001456  00000+0  71232-3 0  9996", "line2": "2 29754  98.8846  98.2929 0036429 214.4384 208.6430 14.19180784974793"}}, "geometry": {"type": "Point", "coordinates": [107.11006063251945, -43.32835395056662]}}, {"type": "Feature", "properties": {"norad_id": 29758, "name": "FENGYUN 1C DEB", "group": "fengyun-1c-debris", "lat": -80.4641895133514, "lon": -179.96236171052, "alt_km": 746.5979567644117, "timestamp": "2025-12-21T20:41:08.232750+00:00", "meta": {"OBJECT_NAME": "FENGYUN 1C DEB", "OBJECT_ID": "1999-025AY", "EPOCH": "2025-12-21T04:57:55.157760", "MEAN_MOTION": 14.41099706, "ECCENTRICITY": 0.00219525, "INCLINATION": 98.8556, "RA_OF_ASC_NODE": 111.2224, "ARG_OF_PERICENTER": 281.6663, "MEAN_ANOMALY": 195.6648, "EPHEMERIS_TYPE": 0, "CLASSIFICATION_TYPE": "U", "NORAD_CAT_ID": 29758, "ELEMENT_SET_NO": 999, "REV_AT_EPOCH": 97793, "BSTAR": 0.0015283542, "MEAN_MOTION_DOT": 4.892e-05, "MEAN_MOTION_DDOT": 0}, "tle": {"line1": "1 29758U 99025AY  25355.20688840  .00004892  00000+0  15284-2 0  9996", "line2": "2 29758  98.8556 111.2224 0021952 281.6663 195.6648 14.41099706977933"}}, "geometry": {"type": "Point", "coordinates": [-179.96236171052, -80.4641895133514]}}, {"type": "Feature", "properties": {"norad_id": 29760, "name": "FENGYUN 1C DEB", "group": "fengyun-1c-debris", "lat": 0.9489530427648936, "lon": -2.378115420166757, "alt_km": 947.1702627464001, "timestamp": "2025-12-21T20:41:08.232760+00:00", "meta": {"OBJECT_NAME": "FENGYUN 1C DEB", "OBJECT_ID": "1999-025BA", "EPOCH": "2025-12-21T12:09:18.629568", "MEAN_MOTION": 14.0829423, "ECCENTRICITY": 0.01312389, "INCLINATION": 98.7626, "RA_OF_ASC_NODE": 357.423, "ARG_OF_PERICENTER": 148.882, "MEAN_ANOMALY": 212.0207, "EPHEMERIS_TYPE": 0, "CLASSIFICATION_TYPE": "U", "NORAD_CAT_ID": 29760, "ELEMENT_SET_NO": 999, "REV_AT_EPOCH": 97216, "BSTAR": 0.00022594043, "MEAN_MOTION_DOT": 3.76e-06, "MEAN_MOTION_DDOT": 0}, "tle": {"line1": "1 29760U 99025BA  25355.50646562  .00000376  00000+0  22594-3 0  9993", "line2": "2 29760  98.7626 357.4230 0131238 148.8820 212.0207 14.08294230972169"}}, "geometry": {"type": "Point", "coordinates": [-2.378115420166757, 0.9489530427648936]}}, {"type": "Feature", "properties": {"norad_id": 29762, "name": "FENGYUN 1C DEB", "group": "fengyun-1c-debris", "lat": 75.77336764000938, "lon": -58.127329336374, "alt_km": 900.855051075011, "timestamp": "2025-12-21T20:41:08.232769+00:00", "meta": {"OBJECT_NAME": "FENGYUN 1C DEB", "OBJECT_ID": "1999-025BC", "EPOCH": "2025-12-21T12:28:43.299840", "MEAN_MOTION": 14.22599986, "ECCENTRICITY": 0.0203516, "INCLINATION": 98.5802, "RA_OF_ASC_NODE": 338.0876, "ARG_OF_PERICENTER": 310.0635, "MEAN_ANOMALY": 176.4728, "EPHEMERIS_TYPE": 0, "CLASSIFICATION_TYPE": "U", "NORAD_CAT_ID": 29762, "ELEMENT_SET_NO": 999, "REV_AT_EPOCH": 98073, "BSTAR": 0.00028128416, "MEAN_MOTION_DOT": 7.29e-06, "MEAN_MOTION_DDOT": 0}, "tle": {"line1": "1 29762U 99025BC  25355.51994560  .00000729  00000+0  28128-3 0  9991", "line2": "2 29762  98.5802 338.0876 0203516 310.0635 176.4728 14.22599986980737"}}, "geometry": {"type": "Point", "coordinates": [-58.127329336374, 75.77336764000938]}}, {"type": "Feature", "properties": {"norad_id": 29763, "name": "FENGYUN 1C DEB", "group": "fengyun-1c-debris", "lat": -0.23538525569816138, "lon": 154.9647457735477, "alt_km": 785.6462621929668, "timestamp": "2025-12-21T20:41:08.232778+00:00", "meta": {"OBJECT_NAME": "FENGYUN 1C DEB", "OBJECT_ID": "1999-025BD", "EPOCH": "2025-12-21T04:34:04.349568", "MEAN_MOTION": 14.07881094, "ECCENTRICITY": 0.01277922, "INCLINATION": 98.762, "RA_OF_ASC_NODE": 334.3492, "ARG_OF_PERICENTER": 156.6833, "MEAN_ANOMALY": 220.9292, "EPHEMERIS_TYPE": 0, "CLASSIFICATION_TYPE": "U", "NORAD_CAT_ID": 29763, "ELEMENT_SET_NO": 999, "REV_AT_EPOCH": 97169, "BSTAR": 6.9874678e-05, "MEAN_MOTION_DOT": 8.6e-07, "MEAN_MOTION_DDOT": 0}, "tle": {"line1": "1 29763U 99025BD  25355.19032812  .00000086  00000+0  69875-4 0  9990", "line2": "2 29763  98.7620 334.3492 0127792 156.6833 220.9292 14.07881094971699"}}, "geometry": {"type": "Point", "coordinates": [154.9647457735477, -0.23538525569816138]}}, {"type": "Feature", "properties": {"norad_id": 29765, "name": "FENGYUN 1C DEB", "group": "fengyun-1c-debris", "lat": -53.95489459863069, "lon": -178.57058394825324, "alt_km": 935.9287990860676, "timestamp": "2025-12-21T20:41:08.232788+00:00", "meta": {"OBJECT_NAME": "FENGYUN 1C DEB", "OBJECT_ID": "1999-025BF", "EPOCH": "2025-12-21T01:00:15.327648", "MEAN_MOTION": 14.02152769, "ECCENTRICITY": 0.00601345, "INCLINATION": 98.8291, "RA_OF_ASC_NODE": 12.9669, "ARG_OF_PERICENTER": 69.777, "MEAN_ANOMALY": 347.7544, "EPHEMERIS_TYPE": 0, "CLASSIFICATION_TYPE": "U", "NORAD_CAT_ID": 29765, "ELEMENT_SET_NO": 999, "REV_AT_EPOCH": 96867, "BSTAR": -6.7729553e-05, "MEAN_MOTION_DOT": -1.47e-06, "MEAN_MOTION_DDOT": 0}, "tle": {"line1": "1 29765U 99025BF  25355.04184407 -.00000147  00000+0 -67730-4 0  9992", "line2": "2 29765  98.8291  12.9669 0060134  69.7770 347.7544 14.02152769968678"}}, "geometry": {"type": "Point", "coordinates": [-178.57058394825324, -53.95489459863069]}}, {"type": "Feature", "properties": {"norad_id": 29766, "name": "FENGYUN 1C DEB", "group": "fengyun-1c-debris", "lat": -35.6429103626262, "lon": 118.7008032121632, "alt_km": 836.7295251147061, "timestamp": "2025-12-21T20:41:08.232797+00:00", "meta": {"OBJECT_NAME": "FENGYUN 1C DEB", "OBJECT_ID": "1999-025BG", "EPOCH": "2025-12-20T19:50:39.198048", "MEAN_MOTION": 13.97077788, "ECCENTRICITY": 0.01457544, "INCLINATION": 98.6864, "RA_OF_ASC_NODE": 304.0158, "ARG_OF_PERICENTER": 265.7452, "MEAN_ANOMALY": 148.5504, "EPHEMERIS_TYPE": 0, "CLASSIFICATION_TYPE": "U", "NORAD_CAT_ID": 29766, "ELEMENT_SET_NO": 999, "REV_AT_EPOCH": 95917, "BSTAR": 0.0006842481, "MEAN_MOTION_DOT": 1.003e-05, "MEAN_MOTION_DDOT": 0}, "tle": {"line1": "1 29766U 99025BG  25354.82684257  .00001003  00000+0  68425-3 0  9997", "line2": "2 29766  98.6864 304.0158 0145754 265.7452 148.5504 13.97077788959176"}}, "geometry": {"type": "Point", "coordinates": [118.7008032121632, -35.6429103626262]}}, {"type": "Feature", "properties": {"norad_id": 29767, "name": "FENGYUN 1C DEB", "group": "fengyun-1c-debris", "lat": -48.445651663370654, "lon": -26.963007183584892, "alt_km": 857.2078094320923, "timestamp": "2025-12-21T20:41:08.232821+00:00", "meta": {"OBJECT_NAME": "FENGYUN 1C DEB", "OBJECT_ID": "1999-025BH", "EPOCH": "2025-12-21T04:21:05.209920", "MEAN_MOTION": 14.0342054, "ECCENTRICITY": 0.0333, "INCLINATION": 98.1984, "RA_OF_ASC_NODE": 323.062, "ARG_OF_PERICENTER": 37.2992, "MEAN_ANOMALY": 80.8279, "EPHEMERIS_TYPE": 0, "CLASSIFICATION_TYPE": "U", "NORAD_CAT_ID": 29767, "ELEMENT_SET_NO": 999, "REV_AT_EPOCH": 95718, "BSTAR": 0.0017619, "MEAN_MOTION_DOT": 4.474e-05, "MEAN_MOTION_DDOT": 0}, "tle": {"line1": "1 29767U 99025BH  25355.18131030  .00004474  00000+0  17619-2 0  9997", "line2": "2 29767  98.1984 323.0620 0333000  37.2992  80.8279 14.03420540957186"}}, "geometry": {"type": "Point", "coordinates": [-26.963007183584892, -48.445651663370654]}}]}